GORIZONT 1 [-]          
1 11158U 78118A   18061.95679419 -.00000266  00000-0  00000-0 0  9992
2 11158  14.7033 260.8936 3523284 202.0700 137.7246  1.00263822 92575
GORIZONT 2 [-]          
1 11440U 79062A   18062.76090977 -.00000012  00000-0  00000-0 0  9990
2 11440  12.4629 320.5597 0005720 305.0999 233.4985  1.00248900107664
GORIZONT 3 [-]          
1 11648U 79105A   18062.77250292 -.00000075  00000-0  00000+0 0  9995
2 11648  12.5809 321.7573 0009563 185.2862   1.1658  1.00346855 92105
GORIZONT 4 [-]          
1 11841U 80049A   18062.32549336 -.00000002  00000-0  00000+0 0  9990
2 11841  13.5995 326.3357 0006247 313.8483 234.2281  0.98627955203689
GORIZONT 5 [-]          
1 13092U 82020A   18061.57268372 -.00000264  00000-0  00000-0 0  9996
2 13092  14.3826 331.1622 0030188 173.9397  12.4850  0.98533896 91751
GORIZONT 6 [-]          
1 13624U 82103A   18062.32549336 -.00000006  00000-0  00000+0 0  9998
2 13624  13.2467 331.0480 0002924 295.1193 249.9830  1.00169299 90570
GORIZONT 7 [-]          
1 14160U 83066A   18057.58151038 -.00000225  00000-0  00000-0 0  9997
2 14160  14.5473 339.0201 0014802 283.4487 243.3101  0.98349243124921
GORIZONT 8 [-]          
1 14532U 83118A   18062.49475837 -.00000051  00000-0  00000-0 0  9997
2 14532  14.6230 340.5789 0023291 104.0418 345.2301  0.98268203 90751
GORIZONT 9 [-]          
1 14940U 84041A   18062.72685038 -.00000292  00000-0  00000-0 0  9995
2 14940  13.8532 339.1293 0004755 241.5063 296.9416  1.00249519 91585
GORIZONT 10 [-]         
1 15144U 84078A   18062.07743003 -.00000318  00000-0  00000+0 0  9995
2 15144  13.8950 340.1172 0005494 300.5066 216.3666  1.00212168124247
GORIZONT 11 [-]         
1 15484U 85007A   18063.42337668  .00000079  00000-0  00000+0 0  9994
2 15484  13.9653 341.9110 0002831 316.2130 233.3763  1.00181277122267
GORIZONT 12 [-]         
1 16769U 86044A   18062.88240355  .00000050  00000-0  00000-0 0  9998
2 16769  14.2914 346.8222 0005869 282.0569 265.2775  1.00212283116909
GORIZONT 13 [-]         
1 17083U 86090A   18063.11226516 -.00000177  00000-0  00000+0 0  9999
2 17083  15.8163 352.9295 0020199 295.8454 252.7767  0.96726652 89385
GORIZONT 14 [-]         
1 17969U 87040A   18063.06994515 -.00000180  00000-0  00000+0 0  9997
2 17969  15.2672 345.1759 0025288 134.7251  36.2509  0.97659442 90289
GORIZONT 15 [-]         
1 19017U 88028A   18062.52476557 -.00000181  00000-0  00000-0 0  9993
2 19017  15.8771 356.1945 0030435 115.3158  65.8832  0.97829474 89886
GORIZONT 16 [-]         
1 19397U 88071A   18063.42342722  .00000066  00000-0  00000+0 0  9998
2 19397  14.7747 355.0723 0015925 352.1301 191.2097  0.99970849107960
GORIZONT 17 [-]         
1 19765U 89004A   18063.00396861  .00000041  00000-0  00000+0 0  9994
2 19765  15.1207 358.0509 0016503  82.4839 143.9898  0.99063311105577
GORIZONT 18 [-]         
1 20107U 89052A   18062.27754306 -.00000127  00000-0  00000+0 0  9995
2 20107  15.0697 359.3868 0040180 275.8644 260.1644  0.99397925104305
GORIZONT 19 [-]         
1 20263U 89081A   18062.81573743 -.00000243  00000-0  00000-0 0  9994
2 20263  14.8365 358.8034 0006762 265.6013 276.4873  1.00352512 16987
GORIZONT 20 [-]         
1 20659U 90054A   18061.83903525 -.00000302  00000-0  00000-0 0  9997
2 20659  15.0742   1.7266 0003704 191.9872   3.2261  1.00296556101332
GORIZONT 21 [-]         
1 20923U 90094A   18061.67929198 -.00000164  00000-0  00000+0 0  9996
2 20923  15.0263   2.5103 0005710 236.3810 247.8882  1.00150910100076
GORIZONT 22 [-]         
1 20953U 90102A   18062.89095878 -.00000129  00000-0  00000-0 0  9995
2 20953  14.9696   2.8004 0007906 290.0967 261.9221  1.00391335100015
GORIZONT 23 [-]         
1 21533U 91046A   18062.84240514 -.00000069  00000-0  00000-0 0  9995
2 21533  15.4561   6.5649 0010240 274.9855 276.8372  0.98906101 16742
GORIZONT 24 [-]         
1 21759U 91074A   18060.93726703 -.00000043  00000-0  00000-0 0  9995
2 21759  15.4826   8.2412 0018840 201.4805 336.1236  0.98442039 95131
GORIZONT 25 [-]         
1 21922U 92017A   18062.14632470 -.00000232  00000-0  00000-0 0  9997
2 21922  15.0519   7.9247 0025349  24.8308 163.4415  0.99858204 94705
GORIZONT 26 [-]         
1 22041U 92043A   18061.54649562 -.00000133  00000-0  00000+0 0  9991
2 22041  15.0901   9.6275 0031929 202.5229 330.8540  0.99245762 93438
GORIZONT 27 [-]         
1 22245U 92082A   18062.48093442  .00000086  00000-0  00000-0 0  9991
2 22245  15.0149   9.7008 0016958 306.7495 225.6375  1.00174996 96781
GORIZONT 28 [-]         
1 22880U 93069A   18062.28832773 -.00000187  00000-0  00000+0 0  9990
2 22880  14.8881  13.1487 0027673  88.3180  82.6366  0.99649230 88963
GORIZONT 29 [-]         
1 22907U 93072A   18062.62376440  .00000025  00000-0  00000-0 0  9997
2 22907  14.8298  12.8214 0016052 289.2256 144.4179  1.00112566 88862
GORIZONT 30 [-]         
1 23108U 94030A   18061.59910347  .00000051  00000-0  00000-0 0  9990
2 23108  14.7743  13.8161 0005772 261.2850 288.3337  1.00310470 87103
GORIZONT 31 [-]         
1 23775U 96005A   18062.14101833 -.00000270  00000-0  00000+0 0  9991
2 23775  14.2480  19.4524 0018628 175.1184 351.0760  0.99898731 80792
GORIZONT 32 [-]         
1 23880U 96034A   18062.00521560  .00000107  00000-0  00000-0 0  9997
2 23880  14.1553  20.0817 0013410 287.3529 251.4815  1.00162341 79713
GORIZONT 33 [-]         
1 26372U 00029A   18063.27115963  .00000002  00000-0  00000+0 0  9994
2 26372  12.1144  29.8293 0003936 282.0185 314.9305  1.00230555 65068
